ONEWEB-0443             
1 51637U 22012R   23059.56623033  .00000702  00000+0  17878-2 0  9997
2 51637  87.9110 245.1572 0001077  66.4015 293.7229 13.17193047 55081
ONEWEB-0443             
1 51637U 22012R   23059.56623033  .00000702  00000+0  17878-2 0  9997
2 51637  87.9110 245.1572 0001077  66.4015 293.7229 13.17193047 56374
ONEWEB-0443             
1 51637U 22012R   23059.87007909  .00000780  00000+0  19896-2 0  9997
2 51637  87.9109 245.0968 0001054  67.8685 292.2558 13.17193944 55120
ONEWEB-0443             
1 51637U 22012R   23060.78162638  .00000897  00000+0  22916-2 0  9996
2 51637  87.9110 244.9156 0001125  77.5199 282.6058 13.17194861 55246
ONEWEB-0443             
1 51637U 22012R   23060.78162638  .00000897  00000+0  22916-2 0  9996
2 51637  87.9110 244.9156 0001125  77.5199 282.6058 13.17194861 56539
ONEWEB-0443             
1 51637U 22012R   23061.76913050 -.00003167  00000+0 -82464-2 0  9996
2 51637  87.9110 244.7193 0001126  60.3075 299.8168 13.17214084 55375
ONEWEB-0443             
1 51637U 22012R   23061.76913050 -.00003167  00000+0 -82464-2 0  9996
2 51637  87.9110 244.7193 0001126  60.3075 299.8168 13.17214084 56668
ONEWEB-0443             
1 51637U 22012R   23062.45279323  .00000146  00000+0  34398-3 0  9997
2 51637  87.9116 244.5836 0000958  72.8327 287.2909 13.17198279 55464
ONEWEB-0443             
1 51637U 22012R   23062.45279323  .00000146  00000+0  34398-3 0  9997
2 51637  87.9116 244.5836 0000958  72.8327 287.2909 13.17198279 56757
